TDRS 3                  
1 19548U 88091B   15079.86458333 -.00000314  00000-0  00000+0 0  9993
2 19548  14.5872  17.0966 0039313 302.9955 106.5921  1.00280805 84210
HST                     
1 20580U 90037B   15080.25211372  .00002480  00000-0  14999-3 0  9990
2 20580  28.4711  13.8382 0003043  15.9166 117.9887 15.07017247166539
TDRS 5                  
1 21639U 91054B   15079.80147648  .00000075  00000-0  00000+0 0  9991
2 21639  13.6436  30.5035 0019159 331.9483 296.5404  1.00278443 86540
TDRS 6                  
1 22314U 93003B   15080.42436262 -.00000306  00000-0  00000+0 0  9999
2 22314  13.1088  33.3253 0004931 313.9098 298.2101  1.00276010 81227
TDRS 7                  
1 23613U 95035B   15080.89025188 -.00000216  00000-0  00000+0 0  9991
2 23613  14.4418  24.1444 0023482   9.2283 191.0080  1.00274183 72016
TRMM                    
1 25063U 97074A   15080.20428647  .00071743  00000-0  43102-3 0  9995
2 25063  34.9515  87.4507 0004341 231.1947 227.0445 15.76514723988072
ISS (ZARYA)             
1 25544U 98067A   15081.16990069  .00017893  00000-0  26665-3 0  9991
2 25544  51.6476 158.7125 0007118 126.1062 321.7646 15.55149620934491
LANDSAT 7               
1 25682U 99020A   15081.20058396  .00000497  00000-0  12049-3 0  9990
2 25682  98.2281 152.2313 0001114  80.5191 279.6153 14.57104817847474
TERRA                   
1 25994U 99068A   15081.14497249  .00000586  00000-0  14010-3 0  9994
2 25994  98.2185 156.8904 0001407 100.7402 259.3953 14.57100771811541
TDRS 8                  
1 26388U 00034A   15080.00613333 -.00000244  00000-0  00000+0 0  9997
2 26388   6.0366  63.7194 0003036 248.3713 317.2845  1.00264979 54007
EO-1                    
1 26619U 00075A   15081.12658582  .00000795  00000-0  16061-3 0  9996
2 26619  97.9399 133.5140 0010576 169.1418 191.0040 14.63908574763826
TIMED                   
1 26998U 01055B   15080.52428989  .00001004  00000-0  11580-3 0  9999
2 26998  74.0718 143.4856 0001455 315.7481  44.3582 14.87128735719748
TDRS 9                  
1 27389U 02011A   15081.19301874 -.00000288  00000-0  10000-3 0  9994
2 27389   3.5540  92.0798 0011561 301.1770 174.6954  1.00267955 49280
AQUA                    
1 27424U 02022A   15080.83762104  .00000804  00000-0  18848-3 0  9994
2 27424  98.2229  23.1412 0001648  93.1788 352.4557 14.57112664685109
TDRS 10                 
1 27566U 02055A   15080.40400117  .00000057  00000-0  00000+0 0  9990
2 27566   3.5694  62.1668 0008187 218.7472 228.6645  1.00271807 45074
SORCE                   
1 27651U 03004A   15080.41136173  .00001885  00000-0  21876-3 0  9997
2 27651  39.9947 201.3779 0024408 250.0234 109.7925 14.87342889658777
AURA                    
1 28376U 04026A   15080.62095521 -.00001797  00000-0 -38896-3 0  9995
2 28376  98.2273  25.1040 0001713  77.0202 283.1017 14.57112835568122
SWIFT                   
1 28485U 04047A   15080.37224993  .00003656  00000-0  24436-3 0  9997
2 28485  20.5571  91.1135 0011851 350.2445   9.7757 15.01149289564862
THEMIS A                
1 30580U 07004A   15080.56233445 -.00000498  00000-0  00000+0 0  9994
2 30580  13.4325 332.0937 8300054 251.8103 359.3875  1.00203122 29410
THEMIS D                
1 30797U 07004D   15081.71055377 -.00000381  00000-0  00000+0 0  9999
2 30797   8.2828 311.7239 8286241 271.7086 359.3875  1.00403157 29286
THEMIS E                
1 30798U 07004E   15078.64726497 -.00000432  00000-0  00000+0 0  9993
2 30798   9.1741 325.2620 8286153 259.0108 359.4337  1.00267301 29408
AIM                     
1 31304U 07015A   15080.41537291  .00005702  00000-0  38649-3 0  9997
2 31304  97.9073 216.2916 0006069  46.4291 313.7438 15.06860236431343
C/NOFS                  
1 32765U 08017A   15080.05251124  .00049463  00000-0  76437-3 0  9999
2 32765  12.9995 358.7701 0116068 178.7541 293.6857 15.44508184379263
FGRST (GLAST)           
1 33053U 08029A   15080.46873766  .00002064  00000-0  10726-3 0  9995
2 33053  25.5824 171.5712 0012940 176.3805 183.6825 15.09605694373395
WISE                    
1 36119U 09071A   15080.53448382  .00004819  00000-0  20261-3 0  9994
2 36119  97.5065  95.6401 0002094   4.7013 355.4243 15.23893013291372
TDRS 11                 
1 39070U 13004A   15080.40409264  .00000061  00000-0  00000+0 0  9996
2 39070   6.3339 330.1365 0009424 275.9699 267.0011  1.00262826  7845
TDRS 12                 
1 39504U 14004A   15081.06095231 -.00000303  00000-0  00000+0 0  9997
2 39504   6.7282 337.6125 0004891 103.8240  78.2955  1.00269498  4284
